[{"OBJECT_NAME":"STARLINK-1626","OBJECT_ID":"2020-057BC","EPOCH":"2026-03-09T21:10:18.495264","MEAN_MOTION":15.54470029,"ECCENTRICITY":0.00074735,"INCLINATION":53.0494,"RA_OF_ASC_NODE":293.3535,"ARG_OF_PERICENTER":135.7142,"MEAN_ANOMALY":224.4467,"EPHEMERIS_TYPE":0,"CLASSIFICATION_TYPE":"U","NORAD_CAT_ID":46167,"ELEMENT_SET_NO":999,"REV_AT_EPOCH":30641,"BSTAR":0.001933485,"MEAN_MOTION_DOT":0.00131235,"MEAN_MOTION_DDOT":0},{"OBJECT_NAME":"STARLINK-36600","OBJECT_ID":"2026-020G","EPOCH":"2026-03-09T22:00:01.999584","MEAN_MOTION":15.67643994,"ECCENTRICITY":0.00013173,"INCLINATION":42.9997,"RA_OF_ASC_NODE":140.9249,"ARG_OF_PERICENTER":269.1521,"MEAN_ANOMALY":338.3082,"EPHEMERIS_TYPE":0,"CLASSIFICATION_TYPE":"U","NORAD_CAT_ID":67623,"ELEMENT_SET_NO":999,"REV_AT_EPOCH":604,"BSTAR":-0.019817162,"MEAN_MOTION_DOT":-0.01966129,"MEAN_MOTION_DDOT":0}]
